43578,IRIDIUM 159,2018,100.4,860.0,+,86.4,Active,1,LEO,USA,USA,Commercial/Government,Communications,Falcon,1 43578U 18061K   25101.12979694  .00000515  00000+0  17666-3 0  9998,2 43578  86.3970 237.1992 0002321  94.7618 265.3843 14.34219337351454,14.34219337,0.0002321,LEO
43922,IRIDIUM 180,2019,100.4,860.0,+,86.4,Active,1,LEO,USA,USA,Commercial/Government,Communications,Falcon,1 43922U 19002A   25101.19906217  .00000283  00000+0  93984-4 0  9995,2 43922  86.4035 174.1480 0002225  91.9438 268.2012 14.34218961327112,14.34218961,0.0002225,LEO
43923,IRIDIUM 176,2019,97.81,860.0,+,86.62,Active,1,LEO,USA,USA,Commercial/Government,Communications,Falcon,1 43923U 19002B   25100.74845381  .00002106  00000+0  33013-3 0  9992,2 43923  86.6160 174.3352 0002193  83.6890 276.4577 14.72240713335622,14.72240713,0.0002193,LEO
43924,IRIDIUM 168,2019,100.4,860.0,+,86.4,Active,1,LEO,USA,USA,Commercial/Government,Communications,Falcon,1 43924U 19002C   25101.19271924  .00000517  00000+0  17744-3 0  9996,2 43924  86.4035 174.2155 0002261  96.7441 263.4012 14.34219509327050,14.34219509,0.0002261,LEO
43925,IRIDIUM 173,2019,100.4,860.0,+,86.4,Active,1,LEO,USA,USA,Commercial/Government,Communications,Falcon,1 43925U 19002D   25101.18003456  .00000323  00000+0  10841-3 0  9995,2 43925  86.4030 174.1275 0002197  92.1056 268.0392 14.34219126327044,14.34219126,0.0002197,LEO
43927,IRIDIUM 172,2019,100.4,860.0,+,86.4,Active,1,LEO,USA,USA,Commercial/Government,Communications,Falcon,1 43927U 19002F   25100.75508103 -.00000058  00000+0 -27662-4 0  9995,2 43927  86.4037 174.3110 0002347  90.6434 269.5031 14.34217564326985,14.34217564,0.0002347,LEO
